CCSDS_OEM_VERS = 1.0
CREATION_DATE  = 2017-05-11T11:58:17
ORIGINATOR     = GMAT USER

META_START
OBJECT_NAME          = MOPSSat_alt_35785_km_RAAN_270_083
OBJECT_ID            = SatId
CENTER_NAME          = Earth
REF_FRAME            = EME2000
TIME_SYSTEM          = UTC
START_TIME           = 2017-01-01T00:00:00.000
USEABLE_START_TIME   = 2017-01-01T00:00:00.000
USEABLE_STOP_TIME    = 2017-01-02T00:00:00.000
STOP_TIME            = 2017-01-02T00:00:00.000
INTERPOLATION        = Lagrange
INTERPOLATION_DEGREE = 7 
META_STOP


                                                                                   

2017-01-01T07:10:50.000   3.997207090761256e+04   1.383317337178278e+04  -9.761860272195764e-01  -9.749212786231136e-01   2.905662300737256e+00  -4.207908872559414e-05
2017-01-01T07:11:00.000   3.996231116841357e+04   1.386222634838322e+04  -9.766066078904758e-01  -9.770264980157438e-01   2.904932855386461e+00  -4.203703761818420e-05
2017-01-01T07:11:10.000   3.995253037974839e+04   1.389127202313581e+04  -9.770267677794041e-01  -9.791311596130829e-01   2.904201894967481e+00  -4.199493180875479e-05
2017-01-01T07:11:20.000   3.994272854717373e+04   1.392031038096837e+04  -9.774465063405530e-01  -9.812352623455967e-01   2.903469419921873e+00  -4.195277132127848e-05
2017-01-01T07:11:30.000   3.993290567627928e+04   1.394934140674838e+04  -9.778658230274230e-01  -9.833388051394253e-01   2.902735430693599e+00  -4.191055617987107e-05
2017-01-01T07:11:40.000   3.992306177265823e+04   1.397836508536796e+04  -9.782847172940428e-01  -9.854417869225512e-01   2.901999927726816e+00  -4.186828640866604e-05
2017-01-01T07:11:50.000   3.991319684203907e+04   1.400738140136226e+04  -9.787031885894926e-01  -9.875442065971469e-01   2.901262911475717e+00  -4.182596203237474e-05
2017-01-01T07:12:00.000   3.990331089012622e+04   1.403639033937217e+04  -9.791212363645517e-01  -9.896460630731003e-01   2.900524382392641e+00  -4.178358307560891e-05
2017-01-01T07:12:10.000   3.989340392265915e+04   1.406539188397219e+04  -9.795388600692231e-01  -9.917473552555390e-01   2.899784340932477e+00  -4.174114956313121e-05
2017-01-01T07:12:20.000   3.988347594518461e+04   1.409438602033759e+04  -9.799560591623437e-01  -9.938480820931771e-01   2.899042787535661e+00  -4.169866151888693e-05
2017-01-01T07:12:30.000   3.987352696328368e+04   1.412337273357886e+04  -9.803728331019954e-01  -9.959482425300856e-01   2.898299722645116e+00  -4.165611896696850e-05
2017-01-01T07:12:40.000   3.986355698252054e+04   1.415235200889271e+04  -9.807891813476860e-01  -9.980478355166360e-01   2.897555146702452e+00  -4.161352193139939e-05
2017-01-01T07:12:50.000   3.985356600856880e+04   1.418132383118565e+04  -9.812051033548983e-01  -1.000146859982225e+00   2.896809060157383e+00  -4.157087043666708e-05
2017-01-01T07:13:00.000   3.984355404711863e+04   1.421028818535377e+04  -9.816205985791552e-01  -1.002245314855549e+00   2.896061463460801e+00  -4.152816450733253e-05
2017-01-01T07:13:10.000   3.983352110387553e+04   1.423924505628228e+04  -9.820356664759957e-01  -1.004343199064567e+00   2.895312357064681e+00  -4.148540416802302e-05
2017-01-01T07:13:20.000   3.982346718465963e+04   1.426819442856815e+04  -9.824503064970406e-01  -1.006440511516410e+00   2.894561741429478e+00  -4.144258944386321e-05
2017-01-01T07:13:30.000   3.981339229527301e+04   1.429713628689411e+04  -9.828645180953175e-01  -1.008537251124477e+00   2.893809617014250e+00  -4.139972035990158e-05
2017-01-01T07:13:40.000   3.980329644155173e+04   1.432607061588124e+04  -9.832783007231539e-01  -1.010633416797754e+00   2.893055984280516e+00  -4.135679694133512e-05
2017-01-01T07:13:50.000   3.979317962913797e+04   1.435499740074193e+04  -9.836916538415200e-01  -1.012729007488114e+00   2.892300843675270e+00  -4.131381921252808e-05
2017-01-01T07:14:00.000   3.978304186370767e+04   1.438391662662684e+04  -9.841045769106853e-01  -1.014824022143015e+00   2.891544195647949e+00  -4.127078719799251e-05
2017-01-01T07:14:10.000   3.977288315091934e+04   1.441282827877270e+04  -9.845170693923380e-01  -1.016918459716200e+00   2.890786040646630e+00  -4.122770092216586e-05
2017-01-01T07:14:20.000   3.976270349654280e+04   1.444173234212680e+04  -9.849291307441850e-01  -1.019012319140495e+00   2.890026379127644e+00  -4.118456040997411e-05
2017-01-01T07:14:30.000   3.975250290636447e+04   1.447062880162611e+04  -9.853407604239786e-01  -1.021105599348031e+00   2.889265211548488e+00  -4.114136568641248e-05
2017-01-01T07:14:40.000   3.974228138618616e+04   1.449951764219683e+04  -9.857519578894944e-01  -1.023198299270212e+00   2.888502538367751e+00  -4.109811677654704e-05
2017-01-01T07:14:50.000   3.973203894192621e+04   1.452839884847763e+04  -9.861627225946341e-01  -1.025290417817668e+00   2.887738360052643e+00  -4.105481370592513e-05
2017-01-01T07:15:00.000   3.972177557948435e+04   1.455727240519291e+04  -9.865730539946972e-01  -1.027381953907287e+00   2.886972677068927e+00  -4.101145650002098e-05
2017-01-01T07:15:10.000   3.971149130479468e+04   1.458613829700555e+04  -9.869829515442993e-01  -1.029472906451561e+00   2.886205489884861e+00  -4.096804518445339e-05
2017-01-01T07:15:20.000   3.970118612359355e+04   1.461499650916848e+04  -9.873924147066231e-01  -1.031563274405769e+00   2.885436798953889e+00  -4.092457978401927e-05
2017-01-01T07:15:30.000   3.969086004165148e+04   1.464384702687311e+04  -9.878014429441618e-01  -1.033653056720788e+00   2.884666604731942e+00  -4.088106032365952e-05
2017-01-01T07:15:40.000   3.968051306472097e+04   1.467268983539677e+04  -9.882100357208240e-01  -1.035742252353771e+00   2.883894907673542e+00  -4.083748682824324e-05
2017-01-01T07:15:50.000   3.967014519866775e+04   1.470152491972812e+04  -9.886181924965778e-01  -1.037830860241012e+00   2.883121708241593e+00  -4.079385932311229e-05
2017-01-01T07:16:00.000   3.965975644937417e+04   1.473035226484560e+04  -9.890259127314446e-01  -1.039918879318115e+00   2.882347006900181e+00  -4.075017783368217e-05
2017-01-01T07:16:10.000   3.964934682273809e+04   1.475917185571697e+04  -9.894331958854743e-01  -1.042006308519962e+00   2.881570804114479e+00  -4.070644238543488e-05
2017-01-01T07:16:20.000   3.963891632477568e+04   1.478798367702329e+04  -9.898400414148879e-01  -1.044093146760725e+00   2.880793100358416e+00  -4.066265300435754e-05
2017-01-01T07:16:30.000   3.962846496148408e+04   1.481678771353113e+04  -9.902464487772975e-01  -1.046179392960820e+00   2.880013896104439e+00  -4.061880971635853e-05
2017-01-01T07:16:40.000   3.961799273889606e+04   1.484558394994307e+04  -9.906524174296044e-01  -1.048265046036079e+00   2.879233191827587e+00  -4.057491254749994e-05
2017-01-01T07:16:50.000   3.960749966283993e+04   1.487437237155841e+04  -9.910579468373155e-01  -1.050350104945607e+00   2.878450987987593e+00  -4.053096152298247e-05
2017-01-01T07:17:00.000   3.959698573918010e+04   1.490315296361072e+04  -9.914630364652002e-01  -1.052434568643799e+00   2.877667285046814e+00  -4.048695666816198e-05
2017-01-01T07:17:10.000   3.958645097375521e+04   1.493192571143889e+04  -9.918676857797070e-01  -1.054518436092730e+00   2.876882083465626e+00  -4.044289800828735e-05
2017-01-01T07:17:20.000   3.957589537254398e+04   1.496069060002689e+04  -9.922718942424531e-01  -1.056601706228818e+00   2.876095383714784e+00  -4.039878556920272e-05
2017-01-01T07:17:30.000   3.956531894152868e+04   1.498944761438375e+04  -9.926756613156067e-01  -1.058684377990347e+00   2.875307186265242e+00  -4.035461937676832e-05
2017-01-01T07:17:40.000   3.955472168672550e+04   1.501819673945868e+04  -9.930789864606817e-01  -1.060766450311323e+00   2.874517491590422e+00  -4.031039945698960e-05
2017-01-01T07:17:50.000   3.954410361417769e+04   1.504693796016469e+04  -9.934818691388976e-01  -1.062847922123180e+00   2.873726300165692e+00  -4.026612583598406e-05
2017-01-01T07:18:00.000   3.953346472994368e+04   1.507567126140675e+04  -9.938843088115511e-01  -1.064928792356820e+00   2.872933612467492e+00  -4.022179853993528e-05
2017-01-01T07:18:10.000   3.952280504009349e+04   1.510439662809220e+04  -9.942863049401688e-01  -1.067009059943371e+00   2.872139428973055e+00  -4.017741759507786e-05
2017-01-01T07:18:20.000   3.951212455067113e+04   1.513311404523376e+04  -9.946878569879568e-01  -1.069088723821644e+00   2.871343750157618e+00  -4.013298302753815e-05
2017-01-01T07:18:30.000   3.950142326771936e+04   1.516182349788073e+04  -9.950889644188263e-01  -1.071167782933148e+00   2.870546576496253e+00  -4.008849486344066e-05
2017-01-01T07:18:40.000   3.949070119727974e+04   1.519052497111905e+04  -9.954896266973969e-01  -1.073246236222098e+00   2.869747908463879e+00  -4.004395312890680e-05
2017-01-01T07:18:50.000   3.947995834536618e+04   1.521921845013944e+04  -9.958898432899363e-01  -1.075324082640346e+00   2.868947746533308e+00  -3.999935784995379e-05
2017-01-01T07:19:00.000   3.946919471800414e+04   1.524790392013502e+04  -9.962896136629400e-01  -1.077401321139967e+00   2.868146091178127e+00  -3.995470905264740e-05
2017-01-01T07:19:10.000   3.945841032123446e+04   1.527658136629096e+04  -9.966889372829909e-01  -1.079477950672515e+00   2.867342942873015e+00  -3.991000676312192e-05
2017-01-01T07:19:20.000   3.944760516112279e+04   1.530525077375549e+04  -9.970878136163351e-01  -1.081553970186917e+00   2.866538302094438e+00  -3.986525100760945e-05
2017-01-01T07:19:30.000   3.943677924376992e+04   1.533391212761761e+04  -9.974862421285956e-01  -1.083629378627858e+00   2.865732169321414e+00  -3.982044181249183e-05
2017-01-01T07:19:40.000   3.942593257527922e+04   1.536256541299106e+04  -9.978842222859322e-01  -1.085704174941871e+00   2.864924545033085e+00  -3.977557920416256e-05
2017-01-01T07:19:50.000   3.941506516190153e+04   1.539121061463768e+04  -9.982817535498413e-01  -1.087778358050054e+00   2.864115429719514e+00  -3.973066320963639e-05
